ONEWEB-0317             
1 49103U 21075AE  24027.43202698  .00000355  00000+0  95106-3 0  9997
2 49103  87.9028 164.1189 0001613  94.7895 265.3418 13.12445160120847
ONEWEB-0318             
1 49104U 21075AF  24027.79059281 -.00000011  00000+0 -60510-4 0  9998
2 49104  87.9245 148.8592 0001301 114.2041 245.9227 13.18685674123321
ONEWEB-0319             
1 49105U 21075AG  24027.50221415  .00000038  00000+0  65917-4 0  9991
2 49105  87.9227 179.2260 0000836 106.4034 253.7189 13.17649272118814
ONEWEB-0323             
1 49106U 21075AH  24027.42249020  .00000091  00000+0  21866-3 0  9998
2 49106  87.9028 164.1089 0001230 103.6889 256.4377 13.12445052120202
ONEWEB-0329             
1 49107U 21075AJ  24027.43418429  .00000114  00000+0  25938-3 0  9991
2 49107  87.9228 179.2432 0001246  89.7330 270.3944 13.17649477118783
ONEWEB-0330             
1 49108U 21075AK  24027.81543784 -.00011585  00000+0 -29885-1 0  9996
2 49108  87.9228 179.1674 0000982  76.5152 283.6089 13.17704965119864
ONEWEB-0292             
1 49186U 21083A   24027.31171205 -.00000147  00000+0 -43666-3 0  9998
2 49186  87.9014 133.7986 0001585 109.8289 250.3011 13.13469301116474
ONEWEB-0303             
1 49187U 21083B   24027.40804187  .00000043  00000+0  76194-4 0  9997
2 49187  87.9245 148.9337 0001387 113.2416 246.8863 13.18687092115085
